[{"OBJECT_NAME":"STARLINK-30193","OBJECT_ID":"2023-102L","EPOCH":"2026-03-09T22:00:01.999584","MEAN_MOTION":15.10744148,"ECCENTRICITY":0.00016947,"INCLINATION":42.9997,"RA_OF_ASC_NODE":246.9413,"ARG_OF_PERICENTER":308.1535,"MEAN_ANOMALY":232.3988,"EPHEMERIS_TYPE":0,"CLASSIFICATION_TYPE":"U","NORAD_CAT_ID":57414,"ELEMENT_SET_NO":999,"REV_AT_EPOCH":577,"BSTAR":0.0057967692,"MEAN_MOTION_DOT":0.00098963,"MEAN_MOTION_DDOT":0},{"OBJECT_NAME":"TABLETSAT-AURORA","OBJECT_ID":"2014-033H","EPOCH":"2026-03-09T22:49:06.914208","MEAN_MOTION":15.16184908,"ECCENTRICITY":0.00118478,"INCLINATION":98.0327,"RA_OF_ASC_NODE":137.2566,"ARG_OF_PERICENTER":188.6042,"MEAN_ANOMALY":171.4988,"EPHEMERIS_TYPE":0,"CLASSIFICATION_TYPE":"U","NORAD_CAT_ID":40017,"ELEMENT_SET_NO":999,"REV_AT_EPOCH":64016,"BSTAR":6.1648456e-5,"MEAN_MOTION_DOT":1.116e-5,"MEAN_MOTION_DDOT":0}]
